     2.11           N: GPS NAV DATA                         RINEX VERSION / TYPE
teqc  2019Feb25                         20230504 17:05:37UTCPGM / RUN BY / DATE
Linux2.6.32-573.12.1.el6.x86_64|x86_64|gcc|Win64-MinGW64|=+ COMMENT
                                                            END OF HEADER
15 21 10 16 14  0  0.0-1.135324127972D-04 2.728484105319D-12 0.000000000000D+00
    8.000000000000D+00-6.571875000000D+01 5.196645032553D-09-9.848096839506D-01
   -3.317371010780D-06 1.379554334562D-02 9.611248970032D-06 5.153692588806D+03
    5.688000000000D+05 6.332993507385D-08 2.302357829211D+00 3.259629011154D-07
    9.294686326251D-01 1.768125000000D+02 1.041618500003D+00-8.451066306548D-09
   -2.771544017362D-10 1.000000000000D+00 2.179000000000D+03 0.000000000000D+00
    2.000000000000D+00 0.000000000000D+00-1.071020960808D-08 8.000000000000D+00
    5.670060000000D+05 4.000000000000D+00
14 21 10 16 14  0  0.0-2.005696296692D-05-7.503331289627D-12 0.000000000000D+00
    2.350000000000D+02-1.528125000000D+01 4.949491880489D-09 2.574974444856D+00
   -7.525086402893D-07 1.132907462306D-03 4.602596163750D-06 5.153637489319D+03
    5.688000000000D+05 1.862645149231D-09-1.723747201767D+00-1.117587089539D-08
    9.549885158363D-01 2.865625000000D+02 3.131136728961D+00-8.371062974088D-09
   -2.682254583813D-10 1.000000000000D+00 2.179000000000D+03 0.000000000000D+00
    2.000000000000D+00 0.000000000000D+00-7.916241884232D-09 4.910000000000D+02
    5.679480000000D+05 4.000000000000D+00
28 21 10 16 14  0  0.0 4.814481362700D-04-7.275957614183D-12 0.000000000000D+00
    7.600000000000D+01-2.075000000000D+01 4.676623371564D-09 4.208197611522D-01
   -1.179054379463D-06 1.745026768185D-02 5.403533577919D-06 5.153708362579D+03
    5.688000000000D+05-1.378357410431D-07-1.672148357794D+00-2.328306436539D-07
    9.706548104575D-01 2.850000000000D+02-1.325881352349D+00-8.498568285196D-09
   -3.643008888800D-10 1.000000000000D+00 2.179000000000D+03 0.000000000000D+00
    2.800000000000D+00 6.300000000000D+01-1.117587089539D-08 7.600000000000D+01
    5.683680000000D+05 4.000000000000D+00
11 21 10 16 16  0  0.0 2.187862992287D-05 4.547473508865D-13 0.000000000000D+00
    2.160000000000D+02 7.396875000000D+01 4.650550856967D-09 1.497601878821D+00
    3.842636942863D-06 4.593357443810D-04 6.606802344322D-06 5.153716533661D+03
    5.760000000000D+05-4.656612873077D-08 3.860818014453D-01-2.607703208923D-08
    9.610279844102D-01 2.538125000000D+02 2.297204079999D+00-8.221413883460D-09
    4.378753821244D-10 1.000000000000D+00 2.179000000000D+03 0.000000000000D+00
    4.096000000000D+03 6.300000000000D+01-8.381903171539D-09 4.720000000000D+02
    5.688180000000D+05 4.000000000000D+00
20 21 10 16 16  0  0.0 5.186097696424D-04-2.273736754432D-13 0.000000000000D+00
    9.400000000000D+01-2.609375000000D+01 5.550588347141D-09-9.010188375655D-02
   -1.309439539909D-06 5.535455886275D-03 2.384185791016D-06 5.153666254044D+03
    5.760000000000D+05 9.872019290924D-08 1.225102735498D+00 2.421438694000D-08
    9.397554936627D-01 3.220312500000D+02 3.003548510080D+00-8.821796034643D-09
    3.107272287506D-11 1.000000000000D+00 2.179000000000D+03 0.000000000000D+00
    2.800000000000D+00 0.000000000000D+00-8.381903171539D-09 9.400000000000D+01
    5.688180000000D+05 4.000000000000D+00
 2 21 10 16 16  0  0.0-6.377231329679D-04-1.818989403546D-12 0.000000000000D+00
    4.600000000000D+01 7.715625000000D+01 4.573404786381D-09-1.021196582011D+00
    4.267320036888D-06 2.034615981393D-02 8.191913366318D-06 5.153777149200D+03
    5.760000000000D+05-3.799796104431D-07 2.528128536873D-01 1.899898052216D-07
    9.645415288891D-01 2.325312500000D+02-1.487069174400D+00-8.414279059926D-09
    4.878774649119D-10 1.000000000000D+00 2.179000000000D+03 0.000000000000D+00
    2.000000000000D+00 0.000000000000D+00-1.769512891769D-08 4.600000000000D+01
    5.688180000000D+05 4.000000000000D+00
30 21 10 16 16  0  0.0-4.829117096961D-04-3.524291969370D-12 0.000000000000D+00
    6.500000000000D+01 6.100000000000D+01 5.127356432119D-09-1.968768059298D+00
    3.060325980186D-06 5.346565041691D-03 8.299946784973D-06 5.153632892609D+03
    5.760000000000D+05 3.352761268616D-08-2.791361083096D+00-8.195638656616D-08
    9.368472110582D-01 2.058750000000D+02-2.738333055935D+00-8.283916486944D-09
    4.189460222120D-10 1.000000000000D+00 2.179000000000D+03 0.000000000000D+00
    2.000000000000D+00 0.000000000000D+00 3.725290298462D-09 6.500000000000D+01
    5.688180000000D+05 4.000000000000D+00
13 21 10 16 16  0  0.0 2.004825510085D-04 5.570655048359D-12 0.000000000000D+00
    8.800000000000D+01-4.918750000000D+01 4.300179119721D-09 4.207880202186D-01
   -2.387911081314D-06 5.577283911407D-03 1.116842031479D-05 5.153686040878D+03
    5.760000000000D+05 0.000000000000D+00 2.555985886683D+00 4.284083843231D-08
    9.685368298466D-01 1.674375000000D+02 9.725468857958D-01-7.913901074317D-09
   -1.296482575132D-10 1.000000000000D+00 2.179000000000D+03 0.000000000000D+00
    2.000000000000D+00 0.000000000000D+00-1.117587089539D-08 8.800000000000D+01
    5.688180000000D+05 4.000000000000D+00
 6 21 10 16 16  0  0.0 9.595602750778D-05 8.299139153678D-12 0.000000000000D+00
    6.800000000000D+01 7.984375000000D+01 4.048740074847D-09-8.875377651218D-01
    3.965571522713D-06 2.256084000692D-03 7.394701242447D-06 5.153596193314D+03
    5.760000000000D+05-4.097819328308D-08 3.312511417568D-01-5.401670932770D-08
    9.854489923175D-01 2.517812500000D+02-1.032335332430D+00-7.971403469522D-09
    4.864488339751D-10 1.000000000000D+00 2.179000000000D+03 0.000000000000D+00
    2.000000000000D+00 0.000000000000D+00 4.190951585770D-09 6.800000000000D+01
    5.688180000000D+05 4.000000000000D+00
 7 21 10 16 16  0  0.0 2.634101547301D-04 6.139089236967D-12 0.000000000000D+00
    1.020000000000D+02 6.190625000000D+01 4.733768609035D-09-1.887975759026D+00
    3.062188625336D-06 1.528524491005D-02 8.236616849899D-06 5.153729589462D+03
    5.760000000000D+05 1.993030309677D-07-2.806350486985D+00-1.769512891769D-07
    9.516698993398D-01 2.142500000000D+02-2.303826105959D+00-7.921401386735D-09
    4.807343102279D-10 1.000000000000D+00 2.179000000000D+03 0.000000000000D+00
    2.000000000000D+00 0.000000000000D+00-1.117587089539D-08 1.020000000000D+02
    5.688180000000D+05 4.000000000000D+00
 5 21 10 16 16  0  0.0-5.786679685116D-05-1.250555214938D-12 0.000000000000D+00
    7.800000000000D+01-4.218750000000D+01 5.094855078307D-09 1.353996270831D+00
   -2.171844244003D-06 6.051356554963D-03 3.209337592125D-06 5.153597194672D+03
    5.760000000000D+05-8.381903171539D-08 1.336915508514D+00 2.235174179077D-08
    9.576169100281D-01 3.190625000000D+02 1.010463403685D+00-8.556784995870D-09
   -8.178912113090D-11 1.000000000000D+00 2.179000000000D+03 0.000000000000D+00
    2.000000000000D+00 0.000000000000D+00-1.117587089539D-08 7.800000000000D+01
    5.688180000000D+05 4.000000000000D+00
 9 21 10 16 16  0  0.0-3.618360497057D-04-1.136868377216D-13 0.000000000000D+00
    2.300000000000D+01-7.481250000000D+01 4.510902182897D-09 1.397555275455D+00
   -3.984197974205D-06 2.272154320963D-03 1.167692244053D-05 5.153698789597D+03
    5.760000000000D+05-1.117587089539D-08 2.405110336557D+00-3.166496753693D-08
    9.537932459343D-01 1.480000000000D+02 1.819316921784D+00-7.979260939675D-09
   -1.860791795162D-10 1.000000000000D+00 2.179000000000D+03 0.000000000000D+00
    2.000000000000D+00 0.000000000000D+00 1.396983861923D-09 2.300000000000D+01
    5.688180000000D+05 4.000000000000D+00
15 21 10 16 16  0  0.0-1.135123893619D-04 2.728484105319D-12 0.000000000000D+00
    3.800000000000D+01-7.471875000000D+01 5.324507501395D-09 6.535974485001D-02
   -3.695487976074D-06 1.379445183557D-02 9.534880518913D-06 5.153690639496D+03
    5.760000000000D+05-9.872019290924D-08 2.302295886333D+00 1.676380634308D-07
    9.294662290507D-01 1.795625000000D+02 1.041624075184D+00-8.598215293037D-09
   -2.514390448740D-10 1.000000000000D+00 2.179000000000D+03 0.000000000000D+00
    2.000000000000D+00 0.000000000000D+00-1.071020960808D-08 3.800000000000D+01
    5.688180000000D+05 4.000000000000D+00
14 21 10 16 16  0  0.0-2.011097967625D-05-7.503331289627D-12 0.000000000000D+00
    2.360000000000D+02-1.403125000000D+01 4.933062624716D-09-2.657934595153D+00
   -6.929039955139D-07 1.133394311182D-03 4.852190613747D-06 5.153636566162D+03
    5.760000000000D+05 2.421438694000D-08-1.723807409624D+00 3.725290298462D-09
    9.549866652450D-01 2.831875000000D+02 3.131066912659D+00-8.351062140973D-09
   -2.717970357232D-10 1.000000000000D+00 2.179000000000D+03 0.000000000000D+00
    2.000000000000D+00 0.000000000000D+00-7.916241884232D-09 4.920000000000D+02
    5.688180000000D+05 4.000000000000D+00
28 21 10 16 16  0  0.0 4.813959822059D-04-7.275957614183D-12 0.000000000000D+00
    7.800000000000D+01-2.175000000000D+01 4.576976363723D-09 1.470960009126D+00
   -1.478940248489D-06 1.745044649579D-02 4.932284355164D-06 5.153709121704D+03
    5.760000000000D+05 2.551823854446D-07-1.672209127411D+00-3.855675458908D-07
    9.706537966553D-01 2.875625000000D+02-1.325860839312D+00-8.154268229431D-09
   -3.232277494475D-10 1.000000000000D+00 2.179000000000D+03 0.000000000000D+00
    4.000000000000D+00 6.300000000000D+01-1.117587089539D-08 7.800000000000D+01
    5.688180000000D+05 4.000000000000D+00
29 21 10 16 16  0  0.0-4.271180368960D-04-5.456968210638D-12 0.000000000000D+00
    6.000000000000D+01 1.343750000000D+00 3.701939914942D-09 9.835218508329D-01
    1.024454832077D-07 1.889791921712D-03 1.068040728569D-05 5.153570541382D+03
    5.760000000000D+05 5.215406417847D-08-6.444854613607D-01-1.303851604462D-08
    9.830140280800D-01 1.849687500000D+02 2.374801193099D+00-7.668176553190D-09
   -1.521491947675D-10 1.000000000000D+00 2.179000000000D+03 0.000000000000D+00
    2.000000000000D+00 0.000000000000D+00-1.024454832077D-08 6.000000000000D+01
    5.688180000000D+05 4.000000000000D+00
